STARLINK-30088          
1 57462U 23107F   26068.09384293  .00006778  00000+0  26191-3 0  9996
2 57462  43.0038 339.6676 0001941 259.6478 100.4155 15.26769614145058
FLOCK 4G-23             
1 62647U 25009AQ  26068.71663397  .00012440  00000+0  46816-3 0  9993
2 62647  97.3979 150.9478 0000905   7.2707 352.8545 15.27262579 63728
